STARLINK-37052          
1 68179U 26050N   26093.46196034  .00171925  00000+0  85821-3 0  9998
2 68179  53.1577 157.5878 0001022  75.9920 284.1216 15.80851490  4390
STARLINK-37035          
1 68180U 26050P   26093.46120919  .00361885  00000+0  17569-2 0  9998
2 68180  53.1575 157.5823 0000959  93.9220 266.1913 15.80926224  4393
STARLINK-37032          
1 68181U 26050Q   26093.46046134  .00216185  00000+0  10721-2 0  9990
2 68181  53.1577 157.5778 0001607  65.0496 295.0693 15.80864373  4393
STARLINK-37082          
1 68182U 26050R   26093.45970918  .00305530  00000+0  14950-2 0  9997
2 68182  53.1575 157.5724 0001553  72.6674 287.4519 15.80907185  4396
STARLINK-37102          
1 68183U 26050S   26093.45895600  .00173848  00000+0  86710-3 0  9991
2 68183  53.1577 157.5672 0000832  73.7903 286.3211 15.80863293  4395
STARLINK-36964          
1 68184U 26050T   26093.45820978  .00185797  00000+0  92530-3 0  9991
2 68184  53.1577 157.5621 0001337  53.3028 306.8117 15.80860225  4398
STARLINK-37061          
1 68185U 26050U   26093.45746126  .00191701  00000+0  95411-3 0  9997
2 68185  53.1578 157.5573 0001226  50.8111 309.3021 15.80856287  4393
STARLINK-37079          
1 68186U 26050V   26093.45670836  .00248421  00000+0  12256-2 0  9999
2 68186  53.1577 157.5526 0000903  84.9479 275.1646 15.80884586  4393
STARLINK-37006          
1 68187U 26050W   26093.45596045  .00329333  00000+0  16083-2 0  9993
2 68187  53.1575 157.5472 0001285  51.7667 308.3471 15.80885837  4392
STARLINK-36340          
1 68188U 26050X   26093.45520914  .00245018  00000+0  12103-2 0  9992
2 68188  53.1576 157.5425 0001269  53.2445 306.8694 15.80868066  4299
STARLINK-36305          
1 68189U 26050Y   26093.45445601  .00426872  00000+0  20544-2 0  9999
2 68189  53.1574 157.5376 0001183  52.4930 307.6200 15.80943978  4296
STARLINK-37071          
1 68190U 26050Z   26093.45295462  .00319131  00000+0  15590-2 0  9993
2 68190  53.1573 157.5269 0001151  65.9431 294.1712 15.80906237  4394
