CCSDS_OMM_VERS = 2.0
CREATION_DATE  = 
ORIGINATOR     = 

OBJECT_NAME    = STARLINK-37052
OBJECT_ID      = 2026-050N
CENTER_NAME    = EARTH
REF_FRAME      = TEME
TIME_SYSTEM    = UTC
MEAN_ELEMENT_THEORY = SGP/SGP4

EPOCH          = 2026-04-03T11:05:13.373376
MEAN_MOTION    = 15.80851490
ECCENTRICITY   = .0001022
INCLINATION    = 53.1577
RA_OF_ASC_NODE = 157.5878
ARG_OF_PERICENTER = 75.9920
MEAN_ANOMALY   = 284.1216

EPHEMERIS_TYPE = 0
CLASSIFICATION_TYPE = U
NORAD_CAT_ID   = 68179
ELEMENT_SET_NO = 999
REV_AT_EPOCH   = 439
BSTAR          = .85821E-3
MEAN_MOTION_DOT = .171925E-2
MEAN_MOTION_DDOT = 0

CCSDS_OMM_VERS = 2.0
CREATION_DATE  = 
ORIGINATOR     = 

OBJECT_NAME    = STARLINK-37035
OBJECT_ID      = 2026-050P
CENTER_NAME    = EARTH
REF_FRAME      = TEME
TIME_SYSTEM    = UTC
MEAN_ELEMENT_THEORY = SGP/SGP4

EPOCH          = 2026-04-03T11:04:08.474016
MEAN_MOTION    = 15.80926224
ECCENTRICITY   = .0000959
INCLINATION    = 53.1575
RA_OF_ASC_NODE = 157.5823
ARG_OF_PERICENTER = 93.9220
MEAN_ANOMALY   = 266.1913

EPHEMERIS_TYPE = 0
CLASSIFICATION_TYPE = U
NORAD_CAT_ID   = 68180
ELEMENT_SET_NO = 999
REV_AT_EPOCH   = 439
BSTAR          = .17569E-2
MEAN_MOTION_DOT = .361885E-2
MEAN_MOTION_DDOT = 0

CCSDS_OMM_VERS = 2.0
CREATION_DATE  = 
ORIGINATOR     = 

OBJECT_NAME    = STARLINK-37032
OBJECT_ID      = 2026-050Q
CENTER_NAME    = EARTH
REF_FRAME      = TEME
TIME_SYSTEM    = UTC
MEAN_ELEMENT_THEORY = SGP/SGP4

EPOCH          = 2026-04-03T11:03:03.859776
MEAN_MOTION    = 15.80864373
ECCENTRICITY   = .0001607
INCLINATION    = 53.1577
RA_OF_ASC_NODE = 157.5778
ARG_OF_PERICENTER = 65.0496
MEAN_ANOMALY   = 295.0693

EPHEMERIS_TYPE = 0
CLASSIFICATION_TYPE = U
NORAD_CAT_ID   = 68181
ELEMENT_SET_NO = 999
REV_AT_EPOCH   = 439
BSTAR          = .10721E-2
MEAN_MOTION_DOT = .216185E-2
MEAN_MOTION_DDOT = 0

CCSDS_OMM_VERS = 2.0
CREATION_DATE  = 
ORIGINATOR     = 

OBJECT_NAME    = STARLINK-37082
OBJECT_ID      = 2026-050R
CENTER_NAME    = EARTH
REF_FRAME      = TEME
TIME_SYSTEM    = UTC
MEAN_ELEMENT_THEORY = SGP/SGP4

EPOCH          = 2026-04-03T11:01:58.873152
MEAN_MOTION    = 15.80907185
ECCENTRICITY   = .0001553
INCLINATION    = 53.1575
RA_OF_ASC_NODE = 157.5724
ARG_OF_PERICENTER = 72.6674
MEAN_ANOMALY   = 287.4519

EPHEMERIS_TYPE = 0
CLASSIFICATION_TYPE = U
NORAD_CAT_ID   = 68182
ELEMENT_SET_NO = 999
REV_AT_EPOCH   = 439
BSTAR          = .1495E-2
MEAN_MOTION_DOT = .30553E-2
MEAN_MOTION_DDOT = 0

CCSDS_OMM_VERS = 2.0
CREATION_DATE  = 
ORIGINATOR     = 

OBJECT_NAME    = STARLINK-37102
OBJECT_ID      = 2026-050S
CENTER_NAME    = EARTH
REF_FRAME      = TEME
TIME_SYSTEM    = UTC
MEAN_ELEMENT_THEORY = SGP/SGP4

EPOCH          = 2026-04-03T11:00:53.798400
MEAN_MOTION    = 15.80863293
ECCENTRICITY   = .0000832
INCLINATION    = 53.1577
RA_OF_ASC_NODE = 157.5672
ARG_OF_PERICENTER = 73.7903
MEAN_ANOMALY   = 286.3211

EPHEMERIS_TYPE = 0
CLASSIFICATION_TYPE = U
NORAD_CAT_ID   = 68183
ELEMENT_SET_NO = 999
REV_AT_EPOCH   = 439
BSTAR          = .8671E-3
MEAN_MOTION_DOT = .173848E-2
MEAN_MOTION_DDOT = 0

CCSDS_OMM_VERS = 2.0
CREATION_DATE  = 
ORIGINATOR     = 

OBJECT_NAME    = STARLINK-36964
OBJECT_ID      = 2026-050T
CENTER_NAME    = EARTH
REF_FRAME      = TEME
TIME_SYSTEM    = UTC
MEAN_ELEMENT_THEORY = SGP/SGP4

EPOCH          = 2026-04-03T10:59:49.324992
MEAN_MOTION    = 15.80860225
ECCENTRICITY   = .0001337
INCLINATION    = 53.1577
RA_OF_ASC_NODE = 157.5621
ARG_OF_PERICENTER = 53.3028
MEAN_ANOMALY   = 306.8117

EPHEMERIS_TYPE = 0
CLASSIFICATION_TYPE = U
NORAD_CAT_ID   = 68184
ELEMENT_SET_NO = 999
REV_AT_EPOCH   = 439
BSTAR          = .9253E-3
MEAN_MOTION_DOT = .185797E-2
MEAN_MOTION_DDOT = 0

CCSDS_OMM_VERS = 2.0
CREATION_DATE  = 
ORIGINATOR     = 

OBJECT_NAME    = STARLINK-37061
OBJECT_ID      = 2026-050U
CENTER_NAME    = EARTH
REF_FRAME      = TEME
TIME_SYSTEM    = UTC
MEAN_ELEMENT_THEORY = SGP/SGP4

EPOCH          = 2026-04-03T10:58:44.652864
MEAN_MOTION    = 15.80856287
ECCENTRICITY   = .0001226
INCLINATION    = 53.1578
RA_OF_ASC_NODE = 157.5573
ARG_OF_PERICENTER = 50.8111
MEAN_ANOMALY   = 309.3021

EPHEMERIS_TYPE = 0
CLASSIFICATION_TYPE = U
NORAD_CAT_ID   = 68185
ELEMENT_SET_NO = 999
REV_AT_EPOCH   = 439
BSTAR          = .95411E-3
MEAN_MOTION_DOT = .191701E-2
MEAN_MOTION_DDOT = 0

CCSDS_OMM_VERS = 2.0
CREATION_DATE  = 
ORIGINATOR     = 

OBJECT_NAME    = STARLINK-37079
OBJECT_ID      = 2026-050V
CENTER_NAME    = EARTH
REF_FRAME      = TEME
TIME_SYSTEM    = UTC
MEAN_ELEMENT_THEORY = SGP/SGP4

EPOCH          = 2026-04-03T10:57:39.602304
MEAN_MOTION    = 15.80884586
ECCENTRICITY   = .0000903
INCLINATION    = 53.1577
RA_OF_ASC_NODE = 157.5526
ARG_OF_PERICENTER = 84.9479
MEAN_ANOMALY   = 275.1646

EPHEMERIS_TYPE = 0
CLASSIFICATION_TYPE = U
NORAD_CAT_ID   = 68186
ELEMENT_SET_NO = 999
REV_AT_EPOCH   = 439
BSTAR          = .12256E-2
MEAN_MOTION_DOT = .248421E-2
MEAN_MOTION_DDOT = 0

CCSDS_OMM_VERS = 2.0
CREATION_DATE  = 
ORIGINATOR     = 

OBJECT_NAME    = STARLINK-37006
OBJECT_ID      = 2026-050W
CENTER_NAME    = EARTH
REF_FRAME      = TEME
TIME_SYSTEM    = UTC
MEAN_ELEMENT_THEORY = SGP/SGP4

EPOCH          = 2026-04-03T10:56:34.982880
MEAN_MOTION    = 15.80885837
ECCENTRICITY   = .0001285
INCLINATION    = 53.1575
RA_OF_ASC_NODE = 157.5472
ARG_OF_PERICENTER = 51.7667
MEAN_ANOMALY   = 308.3471

EPHEMERIS_TYPE = 0
CLASSIFICATION_TYPE = U
NORAD_CAT_ID   = 68187
ELEMENT_SET_NO = 999
REV_AT_EPOCH   = 439
BSTAR          = .16083E-2
MEAN_MOTION_DOT = .329333E-2
MEAN_MOTION_DDOT = 0

CCSDS_OMM_VERS = 2.0
CREATION_DATE  = 
ORIGINATOR     = 

OBJECT_NAME    = STARLINK-36340
OBJECT_ID      = 2026-050X
CENTER_NAME    = EARTH
REF_FRAME      = TEME
TIME_SYSTEM    = UTC
MEAN_ELEMENT_THEORY = SGP/SGP4

EPOCH          = 2026-04-03T10:55:30.069696
MEAN_MOTION    = 15.80868066
ECCENTRICITY   = .0001269
INCLINATION    = 53.1576
RA_OF_ASC_NODE = 157.5425
ARG_OF_PERICENTER = 53.2445
MEAN_ANOMALY   = 306.8694

EPHEMERIS_TYPE = 0
CLASSIFICATION_TYPE = U
NORAD_CAT_ID   = 68188
ELEMENT_SET_NO = 999
REV_AT_EPOCH   = 429
BSTAR          = .12103E-2
MEAN_MOTION_DOT = .245018E-2
MEAN_MOTION_DDOT = 0

CCSDS_OMM_VERS = 2.0
CREATION_DATE  = 
ORIGINATOR     = 

OBJECT_NAME    = STARLINK-36305
OBJECT_ID      = 2026-050Y
CENTER_NAME    = EARTH
REF_FRAME      = TEME
TIME_SYSTEM    = UTC
MEAN_ELEMENT_THEORY = SGP/SGP4

EPOCH          = 2026-04-03T10:54:24.999264
MEAN_MOTION    = 15.80943978
ECCENTRICITY   = .0001183
INCLINATION    = 53.1574
RA_OF_ASC_NODE = 157.5376
ARG_OF_PERICENTER = 52.4930
MEAN_ANOMALY   = 307.6200

EPHEMERIS_TYPE = 0
CLASSIFICATION_TYPE = U
NORAD_CAT_ID   = 68189
ELEMENT_SET_NO = 999
REV_AT_EPOCH   = 429
BSTAR          = .20544E-2
MEAN_MOTION_DOT = .426872E-2
MEAN_MOTION_DDOT = 0

CCSDS_OMM_VERS = 2.0
CREATION_DATE  = 
ORIGINATOR     = 

OBJECT_NAME    = STARLINK-37071
OBJECT_ID      = 2026-050Z
CENTER_NAME    = EARTH
REF_FRAME      = TEME
TIME_SYSTEM    = UTC
MEAN_ELEMENT_THEORY = SGP/SGP4

EPOCH          = 2026-04-03T10:52:15.279168
MEAN_MOTION    = 15.80906237
ECCENTRICITY   = .0001151
INCLINATION    = 53.1573
RA_OF_ASC_NODE = 157.5269
ARG_OF_PERICENTER = 65.9431
MEAN_ANOMALY   = 294.1712

EPHEMERIS_TYPE = 0
CLASSIFICATION_TYPE = U
NORAD_CAT_ID   = 68190
ELEMENT_SET_NO = 999
REV_AT_EPOCH   = 439
BSTAR          = .1559E-2
MEAN_MOTION_DOT = .319131E-2
MEAN_MOTION_DDOT = 0

